NORAD_CAT_ID,OBJECT_NAME,OBJECT_TYPE,EPOCH,MEAN_MOTION,ECCENTRICITY,INCLINATION,RA_OF_ASC_NODE,ARG_OF_PERICENTER,MEAN_ANOMALY,BSTAR,MEAN_MOTION_DOT,MEAN_MOTION_DDOT,TLE_LINE0,TLE_LINE1,TLE_LINE2,SEMIMAJOR_AXIS,PERIOD,APOGEE,PERIGEE,DECAYED
52852.0,STARLINK-4184,PAYLOAD,2022-07-05 06:00:00,15.73286631,0.0001598,53.215,317.1452,50.0949,207.7574,-0.00010662,-0.00015613,0.0,0 STARLINK-4184,1 52852U 22062Y   22186.25001157 -.00015613  00000-0 -10662-3 0  9990,2 52852  53.2150 317.1452 0001598  50.0949 207.7574 15.73286631  3291,6727.648,91.528,350.588,348.43800000000016,0.0
52852.0,STARLINK-4184,PAYLOAD,2022-07-05 14:00:01,15.73308727,0.0001624,53.2153,315.497,40.9926,305.8861,-0.00094616,-0.00131963,0.0,0 STARLINK-4184,1 52852U 22062Y   22186.58334491 -.00131963  00000-0 -94616-3 0  9994,2 52852  53.2153 315.4970 0001624  40.9926 305.8861 15.73308727  1303,6727.585,91.527,350.543,348.358,0.0
52852.0,STARLINK-4184,PAYLOAD,2022-07-05 22:00:00,15.73219462,0.0001796,53.2154,313.8476,37.6574,38.2239,-0.00025776,-0.0003667,0.0,0 STARLINK-4184,1 52852U 22062Y   22186.91667824 -.00036670  00000-0 -25776-3 0  9990,2 52852  53.2154 313.8476 0001796  37.6574  38.2239 15.73219462  3393,6727.84,91.532,350.913,348.496,0.0
52852.0,STARLINK-4184,PAYLOAD,2022-07-06 06:00:00,15.73124253,0.0001515,53.2153,312.1962,40.0195,124.752,0.00022939,0.00031591,0.0,0 STARLINK-4184,1 52852U 22062Y   22187.25001157  .00031591  00000-0  22939-3 0  9992,2 52852  53.2153 312.1962 0001515  40.0195 124.7520 15.73124253  3443,6728.111,91.538,350.995,348.957,0.0
52852.0,STARLINK-4184,PAYLOAD,2022-07-06 14:00:01,15.73149009,0.0001723,53.2155,310.5486,35.9818,217.6409,4.2611e-05,5.351e-05,0.0,0 STARLINK-4184,1 52852U 22062Y   22187.58334491  .00005351  00000-0  42611-4 0  9993,2 52852  53.2155 310.5486 0001723  35.9818 217.6409 15.73149009  1301,6728.041,91.536,351.065,348.746,0.0
52852.0,STARLINK-4184,PAYLOAD,2022-07-06 22:00:00,15.73103178,0.0001817,53.2158,308.8994,35.5919,306.9082,0.0014842,0.00212143,0.0,0 STARLINK-4184,1 52852U 22062Y   22187.91667824  .00212143  00000-0  14842-2 0  9991,2 52852  53.2158 308.8994 0001817  35.5919 306.9082 15.73103178  1306,6728.170999999999,91.539,351.259,348.814,0.0
52852.0,STARLINK-4184,PAYLOAD,2022-07-07 14:00:01,15.73217015,0.0001763,53.2152,305.6003,33.8548,126.4788,6.983899999999999e-05,9.199e-05,0.0,0 STARLINK-4184,1 52852U 22062Y   22188.58334491  .00009199  00000-0  69839-4 0  9999,2 52852  53.2152 305.6003 0001763  33.8548 126.4788 15.73217015  1309,6727.847,91.532,350.898,348.526,0.0
52852.0,STARLINK-4184,PAYLOAD,2022-07-07 20:56:41,15.73252275,0.0001785,53.2152,304.1666,35.2336,324.8802,0.00037313,0.00052191,0.0,0 STARLINK-4184,1 52852U 22062Y   22188.87270364  .00052191  00000-0  37313-3 0  9990,2 52852  53.2152 304.1666 0001785  35.2336 324.8802 15.73252275  3213,6727.746,91.53,350.81199999999984,348.41,0.0
52852.0,STARLINK-4184,PAYLOAD,2022-07-08 14:00:01,15.73296966,0.0001881,53.2164,300.6512,29.6996,37.5276,-0.0010644,-0.00148029,0.0,0 STARLINK-4184,1 52852U 22062Y   22189.58334491 -.00148029  00000-0 -10644-2 0  9996,2 52852  53.2164 300.6512 0001881  29.6996  37.5276 15.73296966  3817,6727.619000000002,91.528,350.749,348.218,0.0
52852.0,STARLINK-4184,PAYLOAD,2022-07-08 22:00:01,15.73318067,0.0001994,53.2149,299.0004,28.384,128.0616,-0.00062468,-0.00087831,0.0,0 STARLINK-4184,1 52852U 22062Y   22189.91668981 -.00087831  00000-0 -62468-3 0  9992,2 52852  53.2149 299.0004 0001994  28.3840 128.0616 15.73318067  3862,6727.559,91.526,350.765,348.082,0.0
52852.0,STARLINK-4184,PAYLOAD,2022-07-09 06:00:00,15.7320636,0.0001686,53.2156,297.349,31.6628,213.5766,-0.00056137,-0.00078697,0.0,0 STARLINK-4184,1 52852U 22062Y   22190.25001157 -.00078697  00000-0 -56137-3 0  9993,2 52852  53.2156 297.3490 0001686  31.6628 213.5766 15.73206360  3924,6727.877,91.533,350.876,348.608,0.0
52852.0,STARLINK-4184,PAYLOAD,2022-07-09 14:00:01,15.73173868,0.0002084,53.2152,295.7021,30.9997,303.1336,0.0001713,0.00023462,0.0,0 STARLINK-4184,1 52852U 22062Y   22190.58334491  .00023462  00000-0  17130-3 0  9997,2 52852  53.2152 295.7021 0002084  30.9997 303.1336 15.73173868  1301,6727.97,91.535,351.237,348.43300000000005,0.0
52852.0,STARLINK-4184,PAYLOAD,2022-07-09 16:00:00,15.73165535,0.0002127,53.2154,295.2901,30.2306,56.1306,0.00039672,0.00055345,0.0,0 STARLINK-4184,1 52852U 22062Y   22190.66667824  .00055345  00000-0  39672-3 0  9995,2 52852  53.2154 295.2901 0002127  30.2306  56.1306 15.73165535  3980,6727.993,91.535,351.289,348.427,0.0
52852.0,STARLINK-4184,PAYLOAD,2022-07-09 20:00:01,15.72960195,0.0001918,53.2163,294.4653,31.9961,278.8636,0.002219,0.00319657,0.0,0 STARLINK-4184,1 52852U 22062Y   22190.83334491  .00319657  00000-0  22190-2 0  9990,2 52852  53.2163 294.4653 0001918  31.9961 278.8636 15.72960195  1304,6728.579000000002,91.547,351.7340000000001,349.153,0.0
52852.0,STARLINK-4184,PAYLOAD,2022-07-10 14:00:01,15.73225552,0.0002255,53.2158,290.7533,26.6094,214.3129,-0.00054006,-0.00075828,0.0,0 STARLINK-4184,1 52852U 22062Y   22191.58334491 -.00075828  00000-0 -54006-3 0  9996,2 52852  53.2158 290.7533 0002255  26.6094 214.3129 15.73225552  4135,6727.821999999999,91.532,351.204,348.17,0.0
52852.0,STARLINK-4184,PAYLOAD,2022-07-10 22:00:00,15.73189445,0.0002284,53.2154,289.1029,28.6066,301.2573,5.1733e-05,6.642e-05,0.0,0 STARLINK-4184,1 52852U 22062Y   22191.91667824  .00006642  00000-0  51733-4 0  9993,2 52852  53.2154 289.1029 0002284  28.6066 301.2573 15.73189445  4180,6727.925,91.534,351.327,348.254,0.0
52852.0,STARLINK-4184,PAYLOAD,2022-07-11 14:00:01,15.73218406,0.0002307,53.2156,285.805,24.2126,123.522,-0.00026967,-0.0003833,0.0,0 STARLINK-4184,1 52852U 22062Y   22192.58334491 -.00038330  00000-0 -26967-3 0  9999,2 52852  53.2156 285.8050 0002307  24.2126 123.5220 15.73218406  1309,6727.843000000003,91.532,351.26,348.156,0.0
52852.0,STARLINK-4184,PAYLOAD,2022-07-11 22:00:00,15.73228154,0.0002202,53.2156,284.1545,18.8426,217.8222,-0.00076832,-0.00107229,0.0,0 STARLINK-4184,1 52852U 22062Y   22192.91667824 -.00107229  00000-0 -76832-3 0  9995,2 52852  53.2156 284.1545 0002202  18.8426 217.8222 15.73228154  1306,6727.815,91.532,351.161,348.1980000000001,0.0
52852.0,STARLINK-4184,PAYLOAD,2022-07-12 06:00:00,15.73167087,0.0002106,53.2161,282.5039,19.0641,306.5252,0.00048952,0.00068549,0.0,0 STARLINK-4184,1 52852U 22062Y   22193.25001157  .00068549  00000-0  48952-3 0  9995,2 52852  53.2161 282.5039 0002106  19.0641 306.5252 15.73167087  4395,6727.989000000001,91.535,351.271,348.43699999999984,0.0
52852.0,STARLINK-4184,PAYLOAD,2022-07-12 14:00:01,15.73200509,0.0002431,53.2161,280.8567,18.8112,35.6968,0.0003614,0.0005041,0.0,0 STARLINK-4184,1 52852U 22062Y   22193.58334491  .00050410  00000-0  36140-3 0  9995,2 52852  53.2161 280.8567 0002431  18.8112  35.6968 15.73200509  1302,6727.894,91.533,351.394,348.12300000000016,0.0
52852.0,STARLINK-4184,PAYLOAD,2022-07-12 22:00:00,15.73294614,0.000243,53.2155,279.206,19.7728,123.7254,-0.00058166,-0.00081807,0.0,0 STARLINK-4184,1 52852U 22062Y   22193.91667824 -.00081807  00000-0 -58166-3 0  9999,2 52852  53.2155 279.2060 0002430  19.7728 123.7254 15.73294614  1304,6727.625,91.528,351.125,347.856,0.0
52852.0,STARLINK-4184,PAYLOAD,2022-07-13 04:00:00,15.7324555,0.0002305,53.2155,277.9678,23.1749,97.0771,-0.00028901,-0.00041069,0.0,0 STARLINK-4184,1 52852U 22062Y   22194.16667824 -.00041069  00000-0 -28901-3 0  9997,2 52852  53.2155 277.9678 0002305  23.1749  97.0771 15.73245550  4537,6727.765,91.531,351.181,348.08,0.0
52852.0,STARLINK-4184,PAYLOAD,2022-07-13 14:00:01,15.73166772,0.0002597,53.2154,275.9084,21.3923,300.0507,-4.3924e-05,-6.774e-05,0.0,0 STARLINK-4184,1 52852U 22062Y   22194.58334491 -.00006774  00000-0 -43924-4 0  9991,2 52852  53.2154 275.9084 0002597  21.3923 300.0507 15.73166772  4602,6727.99,91.535,351.602,348.108,0.0
52852.0,STARLINK-4184,PAYLOAD,2022-07-13 22:00:00,15.73145699,0.0002458,53.2153,274.2577,18.861,31.4612,-1.6416e-05,-2.919e-05,0.0,0 STARLINK-4184,1 52852U 22062Y   22194.91667824 -.00002919  00000-0 -16416-4 0  9990,2 52852  53.2153 274.2577 0002458  18.8610  31.4612 15.73145699  1301,6728.05,91.536,351.569,348.261,0.0
52852.0,STARLINK-4184,PAYLOAD,2022-07-14 14:00:01,15.73184531,0.0002732,53.2154,270.9604,18.618,209.448,8.8179e-05,0.00011764,0.0,0 STARLINK-4184,1 52852U 22062Y   22195.58334491  .00011764  00000-0  88179-4 0  9996,2 52852  53.2154 270.9604 0002732  18.6180 209.4480 15.73184531  1309,6727.939,91.534,351.642,347.966,0.0
52852.0,STARLINK-4184,PAYLOAD,2022-07-14 22:00:00,15.73181994,0.0002578,53.2149,269.3093,16.6458,300.3454,-5.4014e-05,-8.190000000000001e-05,0.0,0 STARLINK-4184,1 52852U 22062Y   22195.91667824 -.00008190  00000-0 -54014-4 0  9994,2 52852  53.2149 269.3093 0002578  16.6458 300.3454 15.73181994  4812,6727.946999999999,91.534,351.546,348.077,0.0
52852.0,STARLINK-4184,PAYLOAD,2022-07-15 14:00:01,15.73216805,0.0002788999999999,53.2145,266.0121,14.8742,119.9537,0.00024715,0.00034235,0.0,0 STARLINK-4184,1 52852U 22062Y   22196.58334491  .00034235  00000-0  24715-3 0  9990,2 52852  53.2145 266.0121 0002789  14.8742 119.9537 15.73216805  4911,6727.847,91.532,351.589,347.836,0.0
52852.0,STARLINK-4184,PAYLOAD,2022-07-15 22:00:00,15.73224067,0.0002663,53.2145,264.3608,12.9351,210.8721,-2.534e-05,-4.181e-05,0.0,0 STARLINK-4184,1 52852U 22062Y   22196.91667824 -.00004181  00000-0 -25340-4 0  9991,2 52852  53.2145 264.3608 0002663  12.9351 210.8721 15.73224067  1303,6727.8269999999975,91.532,351.483,347.9,0.0
52852.0,STARLINK-4184,PAYLOAD,2022-07-16 06:00:00,15.73272301,0.0002631999999999,53.2147,262.7108,15.2814,297.4628,-0.00055762,-0.00078412,0.0,0 STARLINK-4184,1 52852U 22062Y   22197.25001157 -.00078412  00000-0 -55762-3 0  9998,2 52852  53.2147 262.7108 0002632  15.2814 297.4628 15.73272301  5022,6727.689,91.529,351.325,347.783,0.0
